{
 "type": "FeatureCollection",
 "features": [
  {
   "type": "Feature",
   "id": "vjose-narta",
   "properties": {
    "name": "Vjosë–Nartë",
    "categoryLabel": "Projekt",
    "location": "Shqipëri",
    "countryCodes": [
     "AL"
    ],
    "summary": "Flamingot, laguna dhe Peizazhi i Mbrojtur",
    "tagline": "Flamingot, laguna dhe Peizazhi i Mbrojtur",
    "href": "vjose-narta/",
    "page": "vjose-narta",
    "geometrySource": "OpenStreetMap relation 21209191 (Peizazh i Mbrojtur Pishë Poro - Nartë)",
    "group": "Vjosa dhe Narta",
    "status": "Në vazhdim"
   },
   "geometry": {
    "type": "MultiPolygon",
    "coordinates": [
     [
      [
       [
        19.4935959,
        40.4999647
       ],
       [
        19.493099,
        40.4987742
       ],
       [
        19.4917198,
        40.4973948
       ],
       [
        19.4912353,
        40.4942296
       ],
       [
        19.4888125,
        40.4923305
       ],
       [
        19.4875079,
        40.4905257
       ],
       [
        19.4850603,
        40.4888154
       ],
       [
        19.4766861,
        40.4875114
       ],
       [
        19.4750585,
        40.4875019
       ],
       [
        19.4662494,
        40.4956375
       ],
       [
        19.4659388,
        40.4956469
       ],
       [
        19.463193,
        40.4945981
       ],
       [
        19.4590804,
        40.4924627
       ],
       [
        19.4570676,
        40.4919714
       ],
       [
        19.4531663,
        40.4903084
       ],
       [
        19.4442579,
        40.488976
       ],
       [
        19.4418475,
        40.4878421
       ],
       [
        19.4369522,
        40.4857821
       ],
       [
        19.4349394,
        40.4883618
       ],
       [
        19.4305287,
        40.4928218
       ],
       [
        19.4264162,
        40.4954107
       ],
       [
        19.4249128,
        40.4962327
       ],
       [
        19.4239437,
        40.4967902
       ],
       [
        19.4227012,
        40.4972153
       ],
       [
        19.4220054,
        40.4977728
       ],
       [
        19.4179239,
        40.4995112
       ],
       [
        19.4168554,
        40.499908
       ],
       [
        19.4144761,
        40.5005315
       ],
       [
        19.4123205,
        40.5008433
       ],
       [
        19.4115439,
        40.5009283
       ],
       [
        19.4105313,
        40.5009897
       ],
       [
        19.4089348,
        40.5009472
       ],
       [
        19.4081396,
        40.5008338
       ],
       [
        19.4070462,
        40.5005504
       ],
       [
        19.4066548,
        40.5003851
       ],
       [
        19.4062821,
        40.5000875
       ],
       [
        19.4058224,
        40.4993978
       ],
       [
        19.4057354,
        40.4988215
       ],
       [
        19.4055428,
        40.4982074
       ],
       [
        19.404816,
        40.4985286
       ],
       [
        19.4040767,
        40.4990529
       ],
       [
        19.4039773,
        40.4992891
       ],
       [
        19.4038282,
        40.4995537
       ],
       [
        19.4035735,
        40.4999788
       ],
       [
        19.4033685,
        40.5001489
       ],
       [
        19.4023932,
        40.5010086
       ],
       [
        19.4011321,
        40.5022226
       ],
       [
        19.4009271,
        40.5028178
       ],
       [
        19.3999207,
        40.5042774
       ],
       [
        19.3991752,
        40.5052032
       ],
       [
        19.3989019,
        40.5068045
       ],
       [
        19.3986907,
        40.5072579
       ],
       [
        19.3985167,
        40.5074988
       ],
       [
        19.3981564,
        40.5076689
       ],
       [
        19.3974296,
        40.5074705
       ],
       [
        19.396914,
        40.5076075
       ],
       [
        19.3970941,
        40.5079145
       ],
       [
        19.3968829,
        40.5093598
       ],
       [
        19.3952056,
        40.5116647
       ],
       [
        19.3945284,
        40.5124251
       ],
       [
        19.3943793,
        40.512921
       ],
       [
        19.3943421,
        40.51379
       ],
       [
        19.3941184,
        40.5138939
       ],
       [
        19.3933792,
        40.5143851
       ],
       [
        19.3933481,
        40.5146543
       ],
       [
        19.3929816,
        40.5147818
       ],
       [
        19.3922423,
        40.5156036
       ],
       [
        19.3908942,
        40.5167748
       ],
       [
        19.3902295,
        40.5174974
       ],
       [
        19.3898009,
        40.5183191
       ],
       [
        19.3895213,
        40.5183333
       ],
       [
        19.3887324,
        40.5187772
       ],
       [
        19.3878005,
        40.5196886
       ],
       [
        19.386819,
        40.520907
       ],
       [
        19.3864214,
        40.5213557
       ],
       [
        19.3859244,
        40.522064
       ],
       [
        19.3857815,
        40.5226354
       ],
       [
        19.3860859,
        40.5226826
       ],
       [
        19.386717,
        40.5223632
       ],
       [
        19.3871482,
        40.5220262
       ],
       [
        19.3879061,
        40.5222104
       ],
       [
        19.3885274,
        40.5225929
       ],
       [
        19.3890678,
        40.5231312
       ],
       [
        19.3892977,
        40.5238112
       ],
       [
        19.3893784,
        40.5242268
       ],
       [
        19.3894219,
        40.5253318
       ],
       [
        19.3895772,
        40.5260731
       ],
       [
        19.3893225,
        40.5270317
       ],
       [
        19.3888131,
        40.5278533
       ],
       [
        19.3881049,
        40.5286419
       ],
       [
        19.3874091,
        40.5290574
       ],
       [
        19.3865953,
        40.5292038
       ],
       [
        19.3862785,
        40.5292368
       ],
       [
        19.38603,
        40.5292085
       ],
       [
        19.3858188,
        40.5291471
       ],
       [
        19.385707,
        40.5290196
       ],
       [
        19.3857362,
        40.5289045
       ],
       [
        19.3857753,
        40.5287505
       ],
       [
        19.3857939,
        40.5285947
       ],
       [
        19.3857815,
        40.5284719
       ],
       [
        19.3855454,
        40.5283822
       ],
       [
        19.3854026,
        40.5285238
       ],
       [
        19.3851416,
        40.5291518
       ],
       [
        19.384508,
        40.5297185
       ],
       [
        19.3839862,
        40.5300443
       ],
       [
        19.383483,
        40.5303606
       ],
       [
        19.3828493,
        40.5305778
       ],
       [
        19.3825138,
        40.5308517
       ],
       [
        19.3820169,
        40.5313286
       ],
       [
        19.3813335,
        40.531626
       ],
       [
        19.3808303,
        40.5315033
       ],
       [
        19.3807433,
        40.5312672
       ],
       [
        19.3804141,
        40.5311255
       ],
       [
        19.3800911,
        40.5311916
       ],
       [
        19.3796438,
        40.5317205
       ],
       [
        19.3794015,
        40.5319754
       ],
       [
        19.3789604,
        40.5321926
       ],
       [
        19.3785504,
        40.5322446
       ],
       [
        19.378333,
        40.532169
       ],
       [
        19.3782522,
        40.5320321
       ],
       [
        19.3779727,
        40.5317771
       ],
       [
        19.3774695,
        40.5325609
       ],
       [
        19.3771899,
        40.533085
       ],
       [
        19.3776496,
        40.5339065
       ],
       [
        19.3779416,
        40.5344401
       ],
       [
        19.378364,
        40.5347564
       ],
       [
        19.3788113,
        40.5347753
       ],
       [
        19.3790722,
        40.5347753
       ],
       [
        19.3793704,
        40.5348508
       ],
       [
        19.3796251,
        40.53495
       ],
       [
        19.3795879,
        40.5362059
       ],
       [
        19.3794263,
        40.5365977
       ],
       [
        19.3789231,
        40.5363286
       ],
       [
        19.3785877,
        40.5365411
       ],
       [
        19.3776807,
        40.5367394
       ],
       [
        19.3774136,
        40.537287
       ],
       [
        19.377252,
        40.537948
       ],
       [
        19.3763699,
        40.5392971
       ],
       [
        19.3763885,
        40.5395591
       ],
       [
        19.3763311,
        40.5397597
       ],
       [
        19.3765361,
        40.5399663
       ],
       [
        19.3770703,
        40.5400808
       ],
       [
        19.3774881,
        40.539945
       ],
       [
        19.3782087,
        40.540115
       ],
       [
        19.379035,
        40.5403416
       ],
       [
        19.3800973,
        40.5408043
       ],
       [
        19.381054,
        40.5432025
       ],
       [
        19.3813273,
        40.5471679
       ],
       [
        19.3802712,
        40.5555227
       ],
       [
        19.3787057,
        40.5589116
       ],
       [
        19.3753138,
        40.565953
       ],
       [
        19.3741335,
        40.5679162
       ],
       [
        19.3730649,
        40.5694263
       ],
       [
        19.3713379,
        40.5719839
       ],
       [
        19.3703564,
        40.573409
       ],
       [
        19.3687039,
        40.57574
       ],
       [
        19.3676975,
        40.5775424
       ],
       [
        19.3667657,
        40.5789485
       ],
       [
        19.366045,
        40.5797317
       ],
       [
        19.3651132,
        40.5805621
       ],
       [
        19.3643553,
        40.5813831
       ],
       [
        19.3635477,
        40.5828551
       ],
       [
        19.362181,
        40.5864502
       ],
       [
        19.3608019,
        40.5885071
       ],
       [
        19.3591742,
        40.5910923
       ],
       [
        19.357646,
        40.5938001
       ],
       [
        19.3560184,
        40.5959133
       ],
       [
        19.3552605,
        40.5971115
       ],
       [
        19.354018,
        40.5982153
       ],
       [
        19.3538938,
        40.5996398
       ],
       [
        19.3528874,
        40.6014133
       ],
       [
        19.3517071,
        40.6038376
       ],
       [
        19.3497315,
        40.6073466
       ],
       [
        19.3486506,
        40.6089785
       ],
       [
        19.3478679,
        40.6105631
       ],
       [
        19.3469981,
        40.6124023
       ],
       [
        19.3459296,
        40.6137133
       ],
       [
        19.3449356,
        40.6150715
       ],
       [
        19.344128,
        40.6163919
       ],
       [
        19.3431714,
        40.6173916
       ],
       [
        19.3421525,
        40.6194947
       ],
       [
        19.3414443,
        40.6202775
       ],
       [
        19.3395558,
        40.6222768
       ],
       [
        19.3388352,
        40.6232481
       ],
       [
        19.3381518,
        40.6242854
       ],
       [
        19.3354433,
        40.6276331
       ],
       [
        19.3322004,
        40.6308203
       ],
       [
        19.32774,
        40.6353933
       ],
       [
        19.3242114,
        40.6385801
       ],
       [
        19.3206953,
        40.6416914
       ],
       [
        19.3180861,
        40.6434355
       ],
       [
        19.3147563,
        40.6457923
       ],
       [
        19.3133647,
        40.6467162
       ],
       [
        19.3110165,
        40.6485733
       ],
       [
        19.3104325,
        40.6488089
       ],
       [
        19.309774,
        40.6492614
       ],
       [
        19.3098734,
        40.6498082
       ],
       [
        19.3105816,
        40.6504303
       ],
       [
        19.3105069,
        40.6515179
       ],
       [
        19.3108271,
        40.6518679
       ],
       [
        19.3114063,
        40.6520052
       ],
       [
        19.3130717,
        40.6516687
       ],
       [
        19.3150048,
        40.6509676
       ],
       [
        19.3176761,
        40.6495536
       ],
       [
        19.3205213,
        40.6481208
       ],
       [
        19.3228696,
        40.6478945
       ],
       [
        19.3254042,
        40.6489786
       ],
       [
        19.3288334,
        40.6509393
       ],
       [
        19.3296161,
        40.6516934
       ],
       [
        19.3321507,
        40.6546344
       ],
       [
        19.3346108,
        40.6576129
       ],
       [
        19.3354187,
        40.6586684
       ],
       [
        19.3355054,
        40.6587817
       ],
       [
        19.3372945,
        40.6605159
       ],
       [
        19.3398416,
        40.6622501
       ],
       [
        19.3437926,
        40.6636073
       ],
       [
        19.3469236,
        40.6644366
       ],
       [
        19.3478679,
        40.6646911
       ],
       [
        19.3520301,
        40.664823
       ],
       [
        19.3576584,
        40.6641256
       ],
       [
        19.3618579,
        40.6627968
       ],
       [
        19.3665544,
        40.6614207
       ],
       [
        19.3708161,
        40.6601483
       ],
       [
        19.3749535,
        40.65881
       ],
       [
        19.3814143,
        40.6570662
       ],
       [
        19.3891051,
        40.6557938
       ],
       [
        19.3919006,
        40.6550868
       ],
       [
        19.3941619,
        40.6543139
       ],
       [
        19.3962368,
        40.652325
       ],
       [
        19.3973799,
        40.6510336
       ],
       [
        19.3983241,
        40.6494405
       ],
       [
        19.3993057,
        40.644793
       ],
       [
        19.4010576,
        40.6415688
       ],
       [
        19.4039898,
        40.6391552
       ],
       [
        19.4098417,
        40.6361382
       ],
       [
        19.4131218,
        40.6353933
       ],
       [
        19.4158428,
        40.6349313
       ],
       [
        19.4177935,
        40.6355536
       ],
       [
        19.4192347,
        40.6362419
       ],
       [
        19.4208872,
        40.637081
       ],
       [
        19.421409,
        40.6383727
       ],
       [
        19.4197566,
        40.6396078
       ],
       [
        19.4186011,
        40.6410597
       ],
       [
        19.418539,
        40.6425681
       ],
       [
        19.418949,
        40.6440671
       ],
       [
        19.4191478,
        40.6445668
       ],
       [
        19.419856,
        40.6458677
       ],
       [
        19.4209742,
        40.6468764
       ],
       [
        19.421906,
        40.6473195
       ],
       [
        19.4236455,
        40.6475646
       ],
       [
        19.4271741,
        40.6476023
       ],
       [
        19.430889,
        40.6478285
       ],
       [
        19.4336224,
        40.6483564
       ],
       [
        19.4378592,
        40.649827
       ],
       [
        19.4398596,
        40.6515426
       ],
       [
        19.4448418,
        40.6551623
       ],
       [
        19.4475007,
        40.6569626
       ],
       [
        19.4497371,
        40.6575187
       ],
       [
        19.4517499,
        40.6574904
       ],
       [
        19.4540857,
        40.6567458
       ],
       [
        19.4559743,
        40.655577
       ],
       [
        19.4565955,
        40.6538049
       ],
       [
        19.4549306,
        40.6520894
       ],
       [
        19.4524084,
        40.6489503
       ],
       [
        19.4506565,
        40.6455189
       ],
       [
        19.4511908,
        40.6417762
       ],
       [
        19.4523836,
        40.6393815
       ],
       [
        19.4559743,
        40.635629
       ],
       [
        19.4581734,
        40.6345447
       ],
       [
        19.4604471,
        40.6344976
       ],
       [
        19.463603,
        40.635629
       ],
       [
        19.4641994,
        40.6361193
       ],
       [
        19.4654045,
        40.6365719
       ],
       [
        19.4671937,
        40.636289
       ],
       [
        19.4698774,
        40.633055
       ],
       [
        19.4712068,
        40.6315935
       ],
       [
        19.4739278,
        40.6306223
       ],
       [
        19.4760524,
        40.6303582
       ],
       [
        19.4789225,
        40.6303959
       ],
       [
        19.4805874,
        40.6304997
       ],
       [
        19.4831469,
        40.6306977
       ],
       [
        19.4855945,
        40.6305091
       ],
       [
        19.4893343,
        40.62818
       ],
       [
        19.4893592,
        40.6273408
       ],
       [
        19.4865388,
        40.6243515
       ],
       [
        19.4834948,
        40.622107
       ],
       [
        19.4802147,
        40.6193721
       ],
       [
        19.4788728,
        40.6171653
       ],
       [
        19.4789846,
        40.6156751
       ],
       [
        19.4805253,
        40.6128739
       ],
       [
        19.4841657,
        40.6113082
       ],
       [
        19.485756,
        40.6121099
       ],
       [
        19.4871227,
        40.6143641
       ],
       [
        19.4878061,
        40.6154016
       ],
       [
        19.4896574,
        40.6160901
       ],
       [
        19.4910365,
        40.6157506
       ],
       [
        19.4928256,
        40.6141661
       ],
       [
        19.4930617,
        40.6124212
       ],
       [
        19.4954348,
        40.6107706
       ],
       [
        19.5009389,
        40.6119213
       ],
       [
        19.5042314,
        40.6113271
       ],
       [
        19.5083688,
        40.6101009
       ],
       [
        19.5105804,
        40.6102141
       ],
       [
        19.516333,
        40.6097236
       ],
       [
        19.5170163,
        40.6092048
       ],
       [
        19.5169169,
        40.6057997
       ],
       [
        19.5155875,
        40.6046489
       ],
       [
        19.5148669,
        40.6036395
       ],
       [
        19.5129162,
        40.6023
       ],
       [
        19.5131026,
        40.6007907
       ],
       [
        19.512618,
        40.5983662
       ],
       [
        19.5128168,
        40.5956964
       ],
       [
        19.5120962,
        40.5930359
       ],
       [
        19.5120837,
        40.5908659
       ],
       [
        19.5115619,
        40.58946
       ],
       [
        19.5084309,
        40.5860916
       ],
       [
        19.5085179,
        40.5825532
       ],
       [
        19.5073376,
        40.5770328
       ],
       [
        19.5049023,
        40.5753247
       ],
       [
        19.5062318,
        40.5741073
       ],
       [
        19.5063187,
        40.5721538
       ],
       [
        19.5069151,
        40.5705399
       ],
       [
        19.509574,
        40.5685957
       ],
       [
        19.5101703,
        40.5678595
       ],
       [
        19.5103691,
        40.566878
       ],
       [
        19.5096734,
        40.5653301
       ],
       [
        19.509897,
        40.5644806
       ],
       [
        19.5100213,
        40.5630082
       ],
       [
        19.5099964,
        40.5587983
       ],
       [
        19.5098225,
        40.5582886
       ],
       [
        19.5091515,
        40.55759
       ],
       [
        19.5083564,
        40.5566838
       ],
       [
        19.5087539,
        40.5562118
       ],
       [
        19.5090273,
        40.5555133
       ],
       [
        19.5090521,
        40.5540406
       ],
       [
        19.5084558,
        40.552247
       ],
       [
        19.5080582,
        40.5506987
       ],
       [
        19.5067163,
        40.5491882
       ],
       [
        19.5057223,
        40.5483386
       ],
       [
        19.5040823,
        40.5476588
       ],
       [
        19.5038587,
        40.5469979
       ],
       [
        19.5040077,
        40.5457706
       ],
       [
        19.5037096,
        40.5447887
       ],
       [
        19.5029144,
        40.5435802
       ],
       [
        19.5026162,
        40.5426926
       ],
       [
        19.5019701,
        40.5409553
       ],
       [
        19.5011998,
        40.5393313
       ],
       [
        19.5012495,
        40.5358754
       ],
       [
        19.5035108,
        40.5338168
       ],
       [
        19.5036847,
        40.5322871
       ],
       [
        19.5029392,
        40.5300207
       ],
       [
        19.503312,
        40.5272631
       ],
       [
        19.5030635,
        40.5265642
       ],
       [
        19.5012743,
        40.524411
       ],
       [
        19.5019453,
        40.5228054
       ],
       [
        19.5017962,
        40.5211243
       ],
       [
        19.500678,
        40.5202365
       ],
       [
        19.5007028,
        40.5175918
       ],
       [
        19.4991373,
        40.5164206
       ],
       [
        19.4969257,
        40.5159106
       ],
       [
        19.4962051,
        40.5146638
       ],
       [
        19.4980936,
        40.5121512
       ],
       [
        19.4986652,
        40.5106776
       ],
       [
        19.4945899,
        40.50671
       ],
       [
        19.4941426,
        40.506011
       ],
       [
        19.4933723,
        40.5042538
       ],
       [
        19.4933723,
        40.503328
       ],
       [
        19.4935959,
        40.4999647
       ]
      ]
     ]
    ]
   }
  },
  {
   "type": "Feature",
   "id": "lumi-vjosa",
   "properties": {
    "name": "Lumi Vjosa",
    "categoryLabel": "Projekt",
    "location": "Shqipëri",
    "countryCodes": [
     "AL"
    ],
    "summary": "Nga fushata te parku kombëtar, 2023",
    "tagline": "Nga fushata te parku kombëtar, 2023",
    "href": "lumi-vjosa/",
    "page": "lumi-vjosa",
    "group": "Vjosa dhe Narta",
    "status": "Park kombëtar, 2023"
   },
   "geometry": null
  },
  {
   "type": "Feature",
   "id": "flamingo",
   "properties": {
    "name": "Flamingo",
    "categoryLabel": "Projekt",
    "location": "Shqipëri",
    "countryCodes": [
     "AL"
    ],
    "summary": "Protestat, organizimi dhe dokumentimi",
    "tagline": "Protestat, organizimi dhe dokumentimi",
    "href": "docs/aktivizmi/protestat/",
    "page": "flamingo",
    "group": "Revolucioni Flamingo",
    "status": "Protesta çdo ditë"
   },
   "geometry": null
  }
 ]
}