{"type":"FeatureCollection","features":[{"type":"Feature","id":"manual-vjosa-national-park","geometry":{"type":"Point","coordinates":[20.4325,40.124166666666667]},"properties":{"name":"Vjosa Wild River National Park","category":"parqe","categoryLabel":"Park kombëtar","location":"Shqipëri","countryCodes":["AL"],"summary":"Park kombëtar i shpallur më 15 mars 2023 përgjatë lumit Vjosë, njërit nga lumenjtë e fundit të egër në Evropë.","details":[],"mapNote":"Kufiri i saktë i parkut nuk gjendet ende si relacion i taguar në OpenStreetMap; pika shënon vendndodhjen përafërsisht (Wikidata Q117389705) derisa të importohet poligoni zyrtar.","geometryType":"Point","sources":[{"label":"Wikidata","url":"https://www.wikidata.org/wiki/Q117389705"},{"label":"Parku Kombëtar Vjosa","url":"https://www.parkukombetarvjosa.al/"}]}}]}
