{
  "type": "FeatureCollection",
  "features": [
    {
      "type": "Feature",
      "id": "osm-way-535779753",
      "geometry": {
        "type": "Polygon",
        "coordinates": [
          [
            [
              20.5413045,
              42.3529332
            ],
            [
              20.5410353,
              42.3529986
            ],
            [
              20.5408901,
              42.3531974
            ],
            [
              20.5406566,
              42.353615
            ],
            [
              20.5402924,
              42.3542949
            ],
            [
              20.5397693,
              42.354785
            ],
            [
              20.5391762,
              42.3550817
            ],
            [
              20.538784,
              42.3553751
            ],
            [
              20.5382843,
              42.356017
            ],
            [
              20.5375184,
              42.3568452
            ],
            [
              20.5372889,
              42.3577936
            ],
            [
              20.53695,
              42.3583719
            ],
            [
              20.5362722,
              42.3585631
            ],
            [
              20.5356313,
              42.3583446
            ],
            [
              20.5356652,
              42.3581827
            ],
            [
              20.5358127,
              42.3581367
            ],
            [
              20.5359394,
              42.3570787
            ],
            [
              20.5361366,
              42.3564822
            ],
            [
              20.5366296,
              42.3560496
            ],
            [
              20.5372889,
              42.3552208
            ],
            [
              20.5379914,
              42.3543784
            ],
            [
              20.5386138,
              42.353709
            ],
            [
              20.5395627,
              42.3530714
            ],
            [
              20.5405117,
              42.3524567
            ],
            [
              20.5413045,
              42.3529332
            ]
          ]
        ]
      },
      "properties": {
        "name": "Gryka e Drinit të Bardhë",
        "category": "rezervate",
        "categoryLabel": "Rezervat natyror",
        "location": "Kosovë",
        "countryCodes": [
          "XK"
        ],
        "summary": "The White Drin Canyon or White Drin Gorge is a small canyon located in the southwestern Kosovo. The White Drin river runs through the canyon. The canyon is relatively short, only being about 900 m (1 mi) long with a depth of 45 meters. At the entrance of the canyon is Fshajt Bridge, an old Ottoman bridge which…",
        "details": [
          "The White Drin Canyon or White Drin Gorge is a small canyon located in the southwestern Kosovo. The White Drin river runs through the canyon. The canyon is relatively short, only being about 900 m (1 mi) long with a depth of 45 meters. At the entrance of the canyon is Fshajt Bridge, an old Ottoman bridge which attracts divers from all over the Balkans. Canyon of the White Drin river at Fshajt Bridge due to its hydrological and geomorphological values,\nin 1986 was taken under legal protection as a Natural Monument."
        ],
        "mapNote": "Sipërfaqja vjen nga kufiri i objektit në OpenStreetMap.",
        "geometryType": "Polygon",
        "sources": [
          {
            "label": "OpenStreetMap",
            "url": "https://www.openstreetmap.org/way/535779753"
          },
          {
            "label": "Wikipedia",
            "url": "https://en.wikipedia.org/wiki/White_Drin_Canyon"
          },
          {
            "label": "Wikidata",
            "url": "https://www.wikidata.org/wiki/Q7994654"
          }
        ],
        "osm": {
          "type": "way",
          "id": 535779753,
          "tags": {
            "leisure": "nature_reserve",
            "natural": "valley",
            "wikidata": "Q7994654"
          }
        },
        "wikipediaAttribution": "Përmbledhje nga Wikipedia (en); shiko licencën dhe autorët në artikull.",
        "image": {
          "url": "https://upload.wikimedia.org/wikipedia/commons/8/8f/Kanioni_i_drinit_t%C3%AB_bardh%C3%AB.jpg?utm_source=commons.wikimedia.org&utm_campaign=imageinfo&utm_content=thumbnail_unscaled",
          "source": "https://commons.wikimedia.org/wiki/File:Kanioni_i_drinit_t%C3%AB_bardh%C3%AB.jpg",
          "credit": "Faton Haxhiavdyli",
          "license": "CC BY-SA 3.0",
          "licenseUrl": "https://creativecommons.org/licenses/by-sa/3.0",
          "alt": "Gryka e Drinit të Bardhë"
        }
      }
    },
    {
      "type": "Feature",
      "id": "osm-way-1415219715",
      "geometry": {
        "type": "Polygon",
        "coordinates": [
          [
            [
              21.1195208,
              42.3726337
            ],
            [
              21.1190005,
              42.3723117
            ],
            [
              21.1193939,
              42.3720945
            ],
            [
              21.119739,
              42.3719044
            ],
            [
              21.1201323,
              42.3717489
            ],
            [
              21.1203174,
              42.3717886
            ],
            [
              21.1204596,
              42.3718599
            ],
            [
              21.1206393,
              42.3720006
            ],
            [
              21.1207493,
              42.3720501
            ],
            [
              21.1208404,
              42.3720759
            ],
            [
              21.1210979,
              42.3720363
            ],
            [
              21.1212401,
              42.3720264
            ],
            [
              21.1213635,
              42.3720462
            ],
            [
              21.1215244,
              42.3720244
            ],
            [
              21.1216478,
              42.3720422
            ],
            [
              21.1217792,
              42.3720799
            ],
            [
              21.1218972,
              42.3721235
            ],
            [
              21.1220582,
              42.3723097
            ],
            [
              21.1221413,
              42.3723157
            ],
            [
              21.1223157,
              42.3723513
            ],
            [
              21.1224149,
              42.3724128
            ],
            [
              21.1225007,
              42.3725099
            ],
            [
              21.1225007,
              42.3725733
            ],
            [
              21.1224632,
              42.3726565
            ],
            [
              21.1224042,
              42.3727576
            ],
            [
              21.1224578,
              42.3728249
            ],
            [
              21.1225597,
              42.3729121
            ],
            [
              21.1229058,
              42.372924
            ],
            [
              21.1230747,
              42.3728804
            ],
            [
              21.1232276,
              42.3727932
            ],
            [
              21.1234288,
              42.3725931
            ],
            [
              21.1235227,
              42.372389
            ],
            [
              21.1235951,
              42.3721799
            ],
            [
              21.1237775,
              42.372069
            ],
            [
              21.1239813,
              42.3719937
            ],
            [
              21.1243407,
              42.3719263
            ],
            [
              21.1248933,
              42.3719937
            ],
            [
              21.1260734,
              42.3717083
            ],
            [
              21.1264543,
              42.3716489
            ],
            [
              21.1267172,
              42.3716489
            ],
            [
              21.1274467,
              42.3718748
            ],
            [
              21.1277257,
              42.3719065
            ],
            [
              21.1282997,
              42.3718708
            ],
            [
              21.1286323,
              42.3718629
            ],
            [
              21.128938,
              42.3717955
            ],
            [
              21.1292545,
              42.3716092
            ],
            [
              21.1298983,
              42.3713397
            ],
            [
              21.1304293,
              42.3711495
            ],
            [
              21.1310194,
              42.3710584
            ],
            [
              21.13147,
              42.3710861
            ],
            [
              21.1319528,
              42.3711455
            ],
            [
              21.1324732,
              42.3712208
            ],
            [
              21.1331867,
              42.3714388
            ],
            [
              21.1338733,
              42.3719065
            ],
            [
              21.1341523,
              42.3719739
            ],
            [
              21.1342327,
              42.3721245
            ],
            [
              21.1352466,
              42.3720809
            ],
            [
              21.1355255,
              42.3721126
            ],
            [
              21.1357991,
              42.3721601
            ],
            [
              21.1361532,
              42.3721562
            ],
            [
              21.1366038,
              42.3722077
            ],
            [
              21.1368988,
              42.3723305
            ],
            [
              21.1370759,
              42.3725247
            ],
            [
              21.1371671,
              42.3727229
            ],
            [
              21.1372046,
              42.3729607
            ],
            [
              21.137092,
              42.3733847
            ],
            [
              21.1369739,
              42.3738524
            ],
            [
              21.1366789,
              42.3744508
            ],
            [
              21.1362712,
              42.3753266
            ],
            [
              21.1356543,
              42.376563
            ],
            [
              21.1355577,
              42.3770029
            ],
            [
              21.1357026,
              42.3772367
            ],
            [
              21.1359118,
              42.3774507
            ],
            [
              21.1359762,
              42.3776052
            ],
            [
              21.135944,
              42.3777519
            ],
            [
              21.1357827,
              42.3781921
            ],
            [
              21.1356969,
              42.3783743
            ],
            [
              21.1356969,
              42.378517
            ],
            [
              21.1355521,
              42.3789569
            ],
            [
              21.1349405,
              42.3788895
            ],
            [
              21.1349405,
              42.3785408
            ],
            [
              21.1349405,
              42.3783387
            ],
            [
              21.1350478,
              42.3780851
            ],
            [
              21.1352731,
              42.3777918
            ],
            [
              21.1348493,
              42.3774629
            ],
            [
              21.134726,
              42.3772885
            ],
            [
              21.1356915,
              42.3750376
            ],
            [
              21.1359329,
              42.3744392
            ],
            [
              21.1363621,
              42.3737298
            ],
            [
              21.136523,
              42.3732741
            ],
            [
              21.1366518,
              42.3729214
            ],
            [
              21.1362387,
              42.3726994
            ],
            [
              21.13589,
              42.3726915
            ],
            [
              21.1347957,
              42.3726281
            ],
            [
              21.1339803,
              42.3726004
            ],
            [
              21.1337872,
              42.3725726
            ],
            [
              21.1335726,
              42.3724894
            ],
            [
              21.1332507,
              42.3722754
            ],
            [
              21.1326714,
              42.3719147
            ],
            [
              21.1324407,
              42.3718117
            ],
            [
              21.1318506,
              42.371673
            ],
            [
              21.1312337,
              42.3715898
            ],
            [
              21.1307938,
              42.3716135
            ],
            [
              21.1304842,
              42.3716771
            ],
            [
              21.1297372,
              42.3719919
            ],
            [
              21.1292329,
              42.3722975
            ],
            [
              21.128844,
              42.3724382
            ],
            [
              21.1274303,
              42.3723388
            ],
            [
              21.1264487,
              42.372204
            ],
            [
              21.1260088,
              42.3722357
            ],
            [
              21.1254241,
              42.3723229
            ],
            [
              21.1249895,
              42.3724062
            ],
            [
              21.1245389,
              42.3724458
            ],
            [
              21.1242063,
              42.3724418
            ],
            [
              21.1240454,
              42.372529
            ],
            [
              21.1238201,
              42.3728976
            ],
            [
              21.1236109,
              42.3730997
            ],
            [
              21.1230905,
              42.3733097
            ],
            [
              21.1226828,
              42.373282
            ],
            [
              21.1222145,
              42.3732443
            ],
            [
              21.1219382,
              42.3731854
            ],
            [
              21.1217011,
              42.3729848
            ],
            [
              21.1216207,
              42.3727906
            ],
            [
              21.1214544,
              42.3727351
            ],
            [
              21.1213686,
              42.3725964
            ],
            [
              21.1209823,
              42.3725449
            ],
            [
              21.1207248,
              42.3725013
            ],
            [
              21.1203869,
              42.372426
            ],
            [
              21.1199845,
              42.3723745
            ],
            [
              21.1197753,
              42.3723982
            ],
            [
              21.1195208,
              42.3726337
            ]
          ]
        ]
      },
      "properties": {
        "name": "Bifurkacioni i Lumit Nerodime",
        "category": "rezervate",
        "categoryLabel": "Rezervat natyror",
        "location": "Kosovë",
        "countryCodes": [
          "XK"
        ],
        "summary": "Rezervat natyror në Kosovë; kufiri dhe të dhënat vijnë nga OpenStreetMap.",
        "details": [],
        "mapNote": "Sipërfaqja vjen nga kufiri i objektit në OpenStreetMap.",
        "geometryType": "Polygon",
        "sources": [
          {
            "label": "OpenStreetMap",
            "url": "https://www.openstreetmap.org/way/1415219715"
          }
        ],
        "osm": {
          "type": "way",
          "id": 1415219715,
          "tags": {
            "leisure": "nature_reserve"
          }
        }
      }
    },
    {
      "type": "Feature",
      "id": "osm-way-471145469",
      "geometry": {
        "type": "Polygon",
        "coordinates": [
          [
            [
              21.0436613,
              42.5740839
            ],
            [
              21.0442675,
              42.5743011
            ],
            [
              21.0449058,
              42.5747673
            ],
            [
              21.0454476,
              42.5752374
            ],
            [
              21.0463757,
              42.5761262
            ],
            [
              21.0473574,
              42.5769992
            ],
            [
              21.0478724,
              42.5774139
            ],
            [
              21.0495675,
              42.577967
            ],
            [
              21.0504151,
              42.5781566
            ],
            [
              21.0512305,
              42.578279
            ],
            [
              21.0510749,
              42.5785753
            ],
            [
              21.0519225,
              42.5788202
            ],
            [
              21.0539341,
              42.5794917
            ],
            [
              21.0551543,
              42.579622
            ],
            [
              21.0561341,
              42.5796765
            ],
            [
              21.0572987,
              42.5798625
            ],
            [
              21.0575809,
              42.5803436
            ],
            [
              21.0578738,
              42.5806512
            ],
            [
              21.0583401,
              42.5813825
            ],
            [
              21.0584018,
              42.5818226
            ],
            [
              21.0582908,
              42.582113
            ],
            [
              21.0581306,
              42.5824397
            ],
            [
              21.0579822,
              42.5831517
            ],
            [
              21.0584322,
              42.5842714
            ],
            [
              21.0589652,
              42.5847886
            ],
            [
              21.0588395,
              42.585421
            ],
            [
              21.0573295,
              42.5861918
            ],
            [
              21.0571262,
              42.5864368
            ],
            [
              21.0563374,
              42.586464
            ],
            [
              21.0539774,
              42.5861873
            ],
            [
              21.0525909,
              42.5859967
            ],
            [
              21.0511983,
              42.5860239
            ],
            [
              21.04906,
              42.5860058
            ],
            [
              21.0490107,
              42.5852799
            ],
            [
              21.0490292,
              42.584073
            ],
            [
              21.0491093,
              42.5836692
            ],
            [
              21.0489244,
              42.5830204
            ],
            [
              21.048906,
              42.582535
            ],
            [
              21.0487396,
              42.5822446
            ],
            [
              21.0470265,
              42.5817954
            ],
            [
              21.0460591,
              42.5816184
            ],
            [
              21.0459666,
              42.5814143
            ],
            [
              21.0460406,
              42.5807019
            ],
            [
              21.0459913,
              42.5801892
            ],
            [
              21.0453903,
              42.5799176
            ],
            [
              21.0442818,
              42.5796495
            ],
            [
              21.0443423,
              42.5785538
            ],
            [
              21.0432269,
              42.5769793
            ],
            [
              21.0427764,
              42.576915
            ],
            [
              21.0380122,
              42.5766619
            ],
            [
              21.0383667,
              42.5726119
            ],
            [
              21.0399801,
              42.5727951
            ],
            [
              21.0396068,
              42.571692
            ],
            [
              21.0408248,
              42.5712348
            ],
            [
              21.0410785,
              42.5721571
            ],
            [
              21.0418868,
              42.5728453
            ],
            [
              21.0427361,
              42.5734451
            ],
            [
              21.0434755,
              42.5740226
            ],
            [
              21.0436613,
              42.5740839
            ]
          ]
        ]
      },
      "properties": {
        "name": "Ligatina e Hencit",
        "category": "rezervate",
        "categoryLabel": "Rezervat natyror",
        "location": "Kosovë",
        "countryCodes": [
          "XK"
        ],
        "summary": "Rezervat natyror në Kosovë; kufiri dhe të dhënat vijnë nga OpenStreetMap.",
        "details": [],
        "mapNote": "Sipërfaqja vjen nga kufiri i objektit në OpenStreetMap.",
        "geometryType": "Polygon",
        "sources": [
          {
            "label": "OpenStreetMap",
            "url": "https://www.openstreetmap.org/way/471145469"
          }
        ],
        "osm": {
          "type": "way",
          "id": 471145469,
          "tags": {
            "leisure": "nature_reserve"
          }
        }
      }
    },
    {
      "type": "Feature",
      "id": "osm-way-809963907",
      "geometry": {
        "type": "Polygon",
        "coordinates": [
          [
            [
              21.1967199,
              42.2093311
            ],
            [
              21.1969291,
              42.2089894
            ],
            [
              21.1969559,
              42.2084808
            ],
            [
              21.1969291,
              42.2082305
            ],
            [
              21.1971383,
              42.2080437
            ],
            [
              21.1976587,
              42.2078887
            ],
            [
              21.1980664,
              42.2078887
            ],
            [
              21.1983668,
              42.2078371
            ],
            [
              21.1985384,
              42.2075391
            ],
            [
              21.1991607,
              42.2066371
            ],
            [
              21.1993967,
              42.2063907
            ],
            [
              21.1999385,
              42.2059854
            ],
            [
              21.200298,
              42.2056198
            ],
            [
              21.2006949,
              42.2056159
            ],
            [
              21.2011777,
              42.2057192
            ],
            [
              21.201741,
              42.2055006
            ],
            [
              21.2021594,
              42.20529
            ],
            [
              21.204155,
              42.2056596
            ],
            [
              21.2046485,
              42.2058543
            ],
            [
              21.2054424,
              42.2057748
            ],
            [
              21.2056356,
              42.2054967
            ],
            [
              21.2058844,
              42.205291
            ],
            [
              21.2059145,
              42.2052662
            ],
            [
              21.2063323,
              42.205247
            ],
            [
              21.2066821,
              42.2056294
            ],
            [
              21.2067299,
              42.2059377
            ],
            [
              21.2065636,
              42.206049
            ],
            [
              21.2066119,
              42.2064106
            ],
            [
              21.206408,
              42.2070344
            ],
            [
              21.2062149,
              42.2070702
            ],
            [
              21.2059413,
              42.2068437
            ],
            [
              21.2052815,
              42.2067444
            ],
            [
              21.2048684,
              42.206649
            ],
            [
              21.2044232,
              42.2067205
            ],
            [
              21.2039887,
              42.2068993
            ],
            [
              21.2037473,
              42.2070702
            ],
            [
              21.2031411,
              42.2070106
            ],
            [
              21.2029641,
              42.2065536
            ],
            [
              21.202354,
              42.2062171
            ],
            [
              21.2019717,
              42.2062079
            ],
            [
              21.2010007,
              42.2062954
            ],
            [
              21.2003301,
              42.2069152
            ],
            [
              21.1999815,
              42.2072848
            ],
            [
              21.2000619,
              42.2075868
            ],
            [
              21.1995899,
              42.2086079
            ],
            [
              21.1987208,
              42.2090172
            ],
            [
              21.1980986,
              42.209347
            ],
            [
              21.1977445,
              42.2093232
            ],
            [
              21.1974173,
              42.2091722
            ],
            [
              21.1969774,
              42.2092397
            ],
            [
              21.1967199,
              42.2093311
            ]
          ]
        ]
      },
      "properties": {
        "name": "Peizazh i Mbrojtur \"Kompleksi i Pishave në Strazhë\"",
        "category": "rezervate",
        "categoryLabel": "Rezervat natyror",
        "location": "Kosovë",
        "countryCodes": [
          "XK"
        ],
        "summary": "Rezervat natyror në Kosovë; kufiri dhe të dhënat vijnë nga OpenStreetMap.",
        "details": [],
        "mapNote": "Sipërfaqja vjen nga kufiri i objektit në OpenStreetMap.",
        "geometryType": "Polygon",
        "sources": [
          {
            "label": "OpenStreetMap",
            "url": "https://www.openstreetmap.org/way/809963907"
          }
        ],
        "osm": {
          "type": "way",
          "id": 809963907,
          "tags": {
            "leisure": "nature_reserve"
          }
        }
      }
    },
    {
      "type": "Feature",
      "id": "osm-way-511827265",
      "geometry": {
        "type": "Polygon",
        "coordinates": [
          [
            [
              20.8652968,
              42.2746627
            ],
            [
              20.8668418,
              42.2748532
            ],
            [
              20.8688374,
              42.2747262
            ],
            [
              20.8708973,
              42.2736941
            ],
            [
              20.8726354,
              42.2715507
            ],
            [
              20.8741589,
              42.2702487
            ],
            [
              20.8770986,
              42.2697723
            ],
            [
              20.8787937,
              42.2690895
            ],
            [
              20.8799524,
              42.2678351
            ],
            [
              20.8807464,
              42.2661519
            ],
            [
              20.8810039,
              42.2640082
            ],
            [
              20.8813472,
              42.2621185
            ],
            [
              20.8814116,
              42.261245
            ],
            [
              20.8808751,
              42.2598793
            ],
            [
              20.8804674,
              42.2576401
            ],
            [
              20.8799524,
              42.2552578
            ],
            [
              20.878665,
              42.2545431
            ],
            [
              20.8739657,
              42.2542572
            ],
            [
              20.8692236,
              42.2544637
            ],
            [
              20.8665414,
              42.2554801
            ],
            [
              20.8639236,
              42.2566236
            ],
            [
              20.8618422,
              42.2577512
            ],
            [
              20.8609839,
              42.2585929
            ],
            [
              20.8600183,
              42.2599269
            ],
            [
              20.8597608,
              42.2615785
            ],
            [
              20.8587952,
              42.2630554
            ],
            [
              20.8584948,
              42.2639288
            ],
            [
              20.8589668,
              42.2646593
            ],
            [
              20.8610697,
              42.2675334
            ],
            [
              20.8631725,
              42.2711696
            ],
            [
              20.8645244,
              42.2732337
            ],
            [
              20.8648248,
              42.2743134
            ],
            [
              20.8652968,
              42.2746627
            ]
          ]
        ]
      },
      "properties": {
        "name": "Rezervat Strikt i Natyrës \"Rusenica\"",
        "category": "rezervate",
        "categoryLabel": "Rezervat natyror",
        "location": "Kosovë",
        "countryCodes": [
          "XK"
        ],
        "summary": "Rezervat natyror në Kosovë; kufiri dhe të dhënat vijnë nga OpenStreetMap.",
        "details": [],
        "mapNote": "Sipërfaqja vjen nga kufiri i objektit në OpenStreetMap.",
        "geometryType": "Polygon",
        "sources": [
          {
            "label": "OpenStreetMap",
            "url": "https://www.openstreetmap.org/way/511827265"
          }
        ],
        "osm": {
          "type": "way",
          "id": 511827265,
          "tags": {
            "leisure": "nature_reserve"
          }
        }
      }
    },
    {
      "type": "Feature",
      "id": "osm-way-1364073990",
      "geometry": {
        "type": "Polygon",
        "coordinates": [
          [
            [
              19.8447273,
              40.7028601
            ],
            [
              19.8449021,
              40.7030041
            ],
            [
              19.8451587,
              40.7030985
            ],
            [
              19.8453788,
              40.7031461
            ],
            [
              19.8455146,
              40.7031366
            ],
            [
              19.8456429,
              40.7030908
            ],
            [
              19.8458693,
              40.7028477
            ],
            [
              19.8459824,
              40.7026094
            ],
            [
              19.8459912,
              40.702453
            ],
            [
              19.8459233,
              40.7023395
            ],
            [
              19.8456555,
              40.702228
            ],
            [
              19.8454618,
              40.7021765
            ],
            [
              19.8453297,
              40.702229
            ],
            [
              19.8449348,
              40.7024826
            ],
            [
              19.8447852,
              40.7026704
            ],
            [
              19.8447361,
              40.702801
            ],
            [
              19.8447273,
              40.7028601
            ]
          ]
        ]
      },
      "properties": {
        "name": "Rezervuari Rakovës",
        "category": "rezervate",
        "categoryLabel": "Rezervat natyror",
        "location": "Shqipëri",
        "countryCodes": [
          "AL"
        ],
        "summary": "Rezervat natyror në Shqipëri; kufiri dhe të dhënat vijnë nga OpenStreetMap.",
        "details": [],
        "mapNote": "Sipërfaqja vjen nga kufiri i objektit në OpenStreetMap.",
        "geometryType": "Polygon",
        "sources": [
          {
            "label": "OpenStreetMap",
            "url": "https://www.openstreetmap.org/way/1364073990"
          }
        ],
        "osm": {
          "type": "way",
          "id": 1364073990,
          "tags": {
            "leisure": "nature_reserve",
            "natural": "water"
          }
        }
      }
    },
    {
      "type": "Feature",
      "id": "osm-way-982100177",
      "geometry": {
        "type": "Polygon",
        "coordinates": [
          [
            [
              20.9756188,
              42.7785702
            ],
            [
              20.9755259,
              42.7785447
            ],
            [
              20.9754699,
              42.7784745
            ],
            [
              20.9754798,
              42.7784562
            ],
            [
              20.975445,
              42.778412
            ],
            [
              20.9754223,
              42.7783693
            ],
            [
              20.9753535,
              42.7783058
            ],
            [
              20.9754124,
              42.7782631
            ],
            [
              20.9754429,
              42.7782011
            ],
            [
              20.9754862,
              42.7781116
            ],
            [
              20.9755273,
              42.777997
            ],
            [
              20.9755819,
              42.7779117
            ],
            [
              20.9755692,
              42.7778596
            ],
            [
              20.9756138,
              42.777782
            ],
            [
              20.9756415,
              42.7776951
            ],
            [
              20.975667,
              42.7776003
            ],
            [
              20.9757139,
              42.7775831
            ],
            [
              20.9757373,
              42.7776612
            ],
            [
              20.9757983,
              42.7775847
            ],
            [
              20.9758742,
              42.7775285
            ],
            [
              20.9758891,
              42.7774472
            ],
            [
              20.9758727,
              42.7773207
            ],
            [
              20.9759926,
              42.7774353
            ],
            [
              20.9760543,
              42.7774873
            ],
            [
              20.9761728,
              42.7775066
            ],
            [
              20.9762125,
              42.7776029
            ],
            [
              20.9762168,
              42.777667
            ],
            [
              20.9763019,
              42.7776841
            ],
            [
              20.9763544,
              42.7776217
            ],
            [
              20.9763842,
              42.7775561
            ],
            [
              20.9764416,
              42.7774374
            ],
            [
              20.9765331,
              42.7773816
            ],
            [
              20.9765629,
              42.7773166
            ],
            [
              20.9766126,
              42.777227
            ],
            [
              20.9766594,
              42.7771666
            ],
            [
              20.9766814,
              42.7771073
            ],
            [
              20.9767693,
              42.7771343
            ],
            [
              20.9767906,
              42.7770552
            ],
            [
              20.9768686,
              42.7770234
            ],
            [
              20.9769779,
              42.7770224
            ],
            [
              20.9769197,
              42.7769636
            ],
            [
              20.9769027,
              42.7769001
            ],
            [
              20.9769885,
              42.7768652
            ],
            [
              20.9770389,
              42.7768605
            ],
            [
              20.9770318,
              42.7768074
            ],
            [
              20.9770665,
              42.7767381
            ],
            [
              20.9771325,
              42.7766866
            ],
            [
              20.9772325,
              42.7766408
            ],
            [
              20.9773226,
              42.7766236
            ],
            [
              20.9773857,
              42.7766611
            ],
            [
              20.9774545,
              42.7767059
            ],
            [
              20.9774964,
              42.7766908
            ],
            [
              20.9775786,
              42.7767079
            ],
            [
              20.9776772,
              42.7766835
            ],
            [
              20.9777709,
              42.7766647
            ],
            [
              20.9778744,
              42.7766403
            ],
            [
              20.9779808,
              42.7766231
            ],
            [
              20.9781284,
              42.7765887
            ],
            [
              20.978261,
              42.776545
            ],
            [
              20.9782773,
              42.7764997
            ],
            [
              20.9783234,
              42.7764565
            ],
            [
              20.9783646,
              42.7764268
            ],
            [
              20.9784227,
              42.7764091
            ],
            [
              20.9784135,
              42.7765085
            ],
            [
              20.9784454,
              42.7765642
            ],
            [
              20.9785227,
              42.7766538
            ],
            [
              20.978622,
              42.7766923
            ],
            [
              20.9786781,
              42.776798
            ],
            [
              20.978666,
              42.7769152
            ],
            [
              20.9786866,
              42.7769886
            ],
            [
              20.978622,
              42.7770615
            ],
            [
              20.9786398,
              42.7771885
            ],
            [
              20.978561,
              42.7772416
            ],
            [
              20.9785157,
              42.7772234
            ],
            [
              20.9784263,
              42.7772937
            ],
            [
              20.9783539,
              42.777416
            ],
            [
              20.9782539,
              42.7774774
            ],
            [
              20.978222,
              42.777554
            ],
            [
              20.9780262,
              42.777491
            ],
            [
              20.9779127,
              42.7775186
            ],
            [
              20.9777822,
              42.7775389
            ],
            [
              20.9777134,
              42.777491
            ],
            [
              20.9776517,
              42.7775472
            ],
            [
              20.9776205,
              42.7776831
            ],
            [
              20.9775453,
              42.7777497
            ],
            [
              20.9774581,
              42.777844
            ],
            [
              20.977268,
              42.7778294
            ],
            [
              20.9771729,
              42.7779205
            ],
            [
              20.9770247,
              42.7779986
            ],
            [
              20.9768601,
              42.7780892
            ],
            [
              20.9768523,
              42.778161
            ],
            [
              20.9767516,
              42.7782246
            ],
            [
              20.9765551,
              42.7783032
            ],
            [
              20.976392,
              42.778299
            ],
            [
              20.9764225,
              42.7783823
            ],
            [
              20.9762622,
              42.7784515
            ],
            [
              20.976165,
              42.7783766
            ],
            [
              20.9760593,
              42.7783521
            ],
            [
              20.9758614,
              42.7783802
            ],
            [
              20.9757323,
              42.7784515
            ],
            [
              20.9756188,
              42.7785702
            ]
          ]
        ]
      },
      "properties": {
        "name": "Zabeli i ujkanve",
        "category": "rezervate",
        "categoryLabel": "Rezervat natyror",
        "location": "Kosovë",
        "countryCodes": [
          "XK"
        ],
        "summary": "Rezervat natyror në Kosovë; kufiri dhe të dhënat vijnë nga OpenStreetMap.",
        "details": [],
        "mapNote": "Sipërfaqja vjen nga kufiri i objektit në OpenStreetMap.",
        "geometryType": "Polygon",
        "sources": [
          {
            "label": "OpenStreetMap",
            "url": "https://www.openstreetmap.org/way/982100177"
          }
        ],
        "osm": {
          "type": "way",
          "id": 982100177,
          "tags": {
            "leisure": "nature_reserve"
          }
        }
      }
    },
    {
      "type": "Feature",
      "id": "osm-way-982089607",
      "geometry": {
        "type": "Polygon",
        "coordinates": [
          [
            [
              20.9743912,
              42.7661702
            ],
            [
              20.9751604,
              42.766129
            ],
            [
              20.9755797,
              42.7670112
            ],
            [
              20.9758207,
              42.7676632
            ],
            [
              20.9758759,
              42.7679615
            ],
            [
              20.9758768,
              42.7679661
            ],
            [
              20.9756114,
              42.7684192
            ],
            [
              20.975517,
              42.768543
            ],
            [
              20.9752826,
              42.7687199
            ],
            [
              20.9750647,
              42.7688503
            ],
            [
              20.9748561,
              42.7689636
            ],
            [
              20.9747585,
              42.7690167
            ],
            [
              20.9742329,
              42.769239
            ],
            [
              20.9739104,
              42.7689622
            ],
            [
              20.973454,
              42.7686126
            ],
            [
              20.9728437,
              42.7680335
            ],
            [
              20.9725014,
              42.7668052
            ],
            [
              20.9721223,
              42.7661755
            ],
            [
              20.9713971,
              42.7653324
            ],
            [
              20.9700167,
              42.7644757
            ],
            [
              20.9693799,
              42.7642514
            ],
            [
              20.9686538,
              42.7641206
            ],
            [
              20.967949,
              42.7639833
            ],
            [
              20.9672729,
              42.7639234
            ],
            [
              20.9669133,
              42.7638988
            ],
            [
              20.9667072,
              42.7637756
            ],
            [
              20.9664243,
              42.763487
            ],
            [
              20.96594,
              42.7630469
            ],
            [
              20.9657962,
              42.7625471
            ],
            [
              20.9661318,
              42.7618923
            ],
            [
              20.9667695,
              42.761403
            ],
            [
              20.9670524,
              42.7608293
            ],
            [
              20.967738,
              42.7592768
            ],
            [
              20.9681695,
              42.7594
            ],
            [
              20.9703415,
              42.7615368
            ],
            [
              20.9712525,
              42.7628428
            ],
            [
              20.9731258,
              42.7641609
            ],
            [
              20.9743912,
              42.7661702
            ]
          ]
        ]
      },
      "properties": {
        "name": "Zhari",
        "category": "rezervate",
        "categoryLabel": "Rezervat natyror",
        "location": "Kosovë",
        "countryCodes": [
          "XK"
        ],
        "summary": "Rezervat natyror në Kosovë; kufiri dhe të dhënat vijnë nga OpenStreetMap.",
        "details": [],
        "mapNote": "Sipërfaqja vjen nga kufiri i objektit në OpenStreetMap.",
        "geometryType": "Polygon",
        "sources": [
          {
            "label": "OpenStreetMap",
            "url": "https://www.openstreetmap.org/way/982089607"
          }
        ],
        "osm": {
          "type": "way",
          "id": 982089607,
          "tags": {
            "leisure": "nature_reserve"
          }
        }
      }
    },
    {
      "type": "Feature",
      "id": "osm-way-982109668",
      "geometry": {
        "type": "Polygon",
        "coordinates": [
          [
            [
              20.9758759,
              42.7679615
            ],
            [
              20.976083,
              42.7680271
            ],
            [
              20.976223,
              42.7677933
            ],
            [
              20.9763571,
              42.767506
            ],
            [
              20.9764305,
              42.7673815
            ],
            [
              20.9765136,
              42.7672898
            ],
            [
              20.9766173,
              42.7672353
            ],
            [
              20.9767257,
              42.7672117
            ],
            [
              20.9768692,
              42.7672222
            ],
            [
              20.9770772,
              42.7672459
            ],
            [
              20.9771603,
              42.7672379
            ],
            [
              20.9773861,
              42.7672601
            ],
            [
              20.9777316,
              42.7675752
            ],
            [
              20.9776845,
              42.7678442
            ],
            [
              20.9776243,
              42.7682285
            ],
            [
              20.9778311,
              42.7687205
            ],
            [
              20.9777286,
              42.769053
            ],
            [
              20.9771193,
              42.7690682
            ],
            [
              20.9766384,
              42.7691717
            ],
            [
              20.976025,
              42.7692021
            ],
            [
              20.9758011,
              42.7692477
            ],
            [
              20.9756601,
              42.7692915
            ],
            [
              20.9756428,
              42.7696369
            ],
            [
              20.9753299,
              42.7693273
            ],
            [
              20.9751146,
              42.7691725
            ],
            [
              20.9748561,
              42.7689636
            ],
            [
              20.9758759,
              42.7679615
            ]
          ]
        ]
      },
      "properties": {
        "name": "Zhari",
        "category": "rezervate",
        "categoryLabel": "Rezervat natyror",
        "location": "Kosovë",
        "countryCodes": [
          "XK"
        ],
        "summary": "Rezervat natyror në Kosovë; kufiri dhe të dhënat vijnë nga OpenStreetMap.",
        "details": [],
        "mapNote": "Sipërfaqja vjen nga kufiri i objektit në OpenStreetMap.",
        "geometryType": "Polygon",
        "sources": [
          {
            "label": "OpenStreetMap",
            "url": "https://www.openstreetmap.org/way/982109668"
          }
        ],
        "osm": {
          "type": "way",
          "id": 982109668,
          "tags": {
            "leisure": "nature_reserve"
          }
        }
      }
    },
    {
      "type": "Feature",
      "id": "osm-way-762950433",
      "geometry": {
        "type": "Polygon",
        "coordinates": [
          [
            [
              21.2031635,
              42.6126639
            ],
            [
              21.2035068,
              42.6141878
            ],
            [
              21.2043222,
              42.6148115
            ],
            [
              21.2044831,
              42.6155932
            ],
            [
              21.2028877,
              42.6159493
            ],
            [
              21.2010821,
              42.6174802
            ],
            [
              21.200492,
              42.6178434
            ],
            [
              21.1985715,
              42.6193355
            ],
            [
              21.1995371,
              42.6227698
            ],
            [
              21.2033445,
              42.6260395
            ],
            [
              21.2034531,
              42.6261328
            ],
            [
              21.2040909,
              42.6267779
            ],
            [
              21.2051268,
              42.6277668
            ],
            [
              21.2044402,
              42.6283668
            ],
            [
              21.2048157,
              42.6292982
            ],
            [
              21.2096437,
              42.6275616
            ],
            [
              21.2100085,
              42.6271195
            ],
            [
              21.2101479,
              42.6259038
            ],
            [
              21.2104591,
              42.6250513
            ],
            [
              21.2108239,
              42.6243881
            ],
            [
              21.2125327,
              42.62289
            ],
            [
              21.2133022,
              42.6225329
            ],
            [
              21.2159844,
              42.6184513
            ],
            [
              21.217862,
              42.616438
            ],
            [
              21.2184533,
              42.6159549
            ],
            [
              21.2184165,
              42.6138885
            ],
            [
              21.2183404,
              42.612641
            ],
            [
              21.2186344,
              42.6119454
            ],
            [
              21.2188838,
              42.6113239
            ],
            [
              21.2186559,
              42.6105162
            ],
            [
              21.2182804,
              42.6079973
            ],
            [
              21.2179585,
              42.6073024
            ],
            [
              21.2169822,
              42.6069154
            ],
            [
              21.2166937,
              42.6071335
            ],
            [
              21.2161443,
              42.6071415
            ],
            [
              21.2159201,
              42.6073261
            ],
            [
              21.2149724,
              42.6074553
            ],
            [
              21.2139521,
              42.6084762
            ],
            [
              21.2132924,
              42.6093729
            ],
            [
              21.2118459,
              42.6100112
            ],
            [
              21.2110567,
              42.6098096
            ],
            [
              21.2106142,
              42.6098979
            ],
            [
              21.2103812,
              42.6100109
            ],
            [
              21.2102574,
              42.6103972
            ],
            [
              21.2100024,
              42.6105663
            ],
            [
              21.2074181,
              42.6110149
            ],
            [
              21.2058243,
              42.610058
            ],
            [
              21.2030441,
              42.6095093
            ],
            [
              21.2027384,
              42.6098669
            ],
            [
              21.2019752,
              42.611266
            ],
            [
              21.202823,
              42.6121701
            ],
            [
              21.2031635,
              42.6126639
            ]
          ]
        ]
      },
      "properties": {
        "name": "Zona e Mbrojtur e Kishnicës",
        "category": "rezervate",
        "categoryLabel": "Rezervat natyror",
        "location": "Kosovë",
        "countryCodes": [
          "XK"
        ],
        "summary": "Rezervat natyror në Kosovë; kufiri dhe të dhënat vijnë nga OpenStreetMap.",
        "details": [],
        "mapNote": "Sipërfaqja vjen nga kufiri i objektit në OpenStreetMap.",
        "geometryType": "Polygon",
        "sources": [
          {
            "label": "OpenStreetMap",
            "url": "https://www.openstreetmap.org/way/762950433"
          }
        ],
        "osm": {
          "type": "way",
          "id": 762950433,
          "tags": {
            "leisure": "nature_reserve"
          }
        }
      }
    }
  ]
}
